[{"OBJECT_NAME":"STRAND-1","OBJECT_ID":"2013-009E","EPOCH":"2026-03-09T21:53:59.161920","MEAN_MOTION":14.37095119,"ECCENTRICITY":0.00090423,"INCLINATION":98.3888,"RA_OF_ASC_NODE":251.5986,"ARG_OF_PERICENTER":161.0822,"MEAN_ANOMALY":199.0703,"EPHEMERIS_TYPE":0,"CLASSIFICATION_TYPE":"U","NORAD_CAT_ID":39090,"ELEMENT_SET_NO":999,"REV_AT_EPOCH":68280,"BSTAR":0.00017106883,"MEAN_MOTION_DOT":4.66e-6,"MEAN_MOTION_DDOT":0},{"OBJECT_NAME":"NOAA 16 DEB","OBJECT_ID":"2000-055SC","EPOCH":"2026-03-07T10:57:41.170464","MEAN_MOTION":14.3312953,"ECCENTRICITY":0.00137342,"INCLINATION":98.665,"RA_OF_ASC_NODE":144.3126,"ARG_OF_PERICENTER":235.189,"MEAN_ANOMALY":124.8002,"EPHEMERIS_TYPE":0,"CLASSIFICATION_TYPE":"U","NORAD_CAT_ID":42384,"ELEMENT_SET_NO":999,"REV_AT_EPOCH":51740,"BSTAR":0.0023724243,"MEAN_MOTION_DOT":6.477e-5,"MEAN_MOTION_DDOT":0}]
